NORAD_CAT_ID,OBJECT_NAME,OBJECT_TYPE,EPOCH,MEAN_MOTION,ECCENTRICITY,INCLINATION,RA_OF_ASC_NODE,ARG_OF_PERICENTER,MEAN_ANOMALY,BSTAR,MEAN_MOTION_DOT,MEAN_MOTION_DDOT,TLE_LINE0,TLE_LINE1,TLE_LINE2,SEMIMAJOR_AXIS,PERIOD,APOGEE,PERIGEE,DECAYED
55430.0,STARLINK-5642,PAYLOAD,2024-01-05 22:24:24,14.98325995,0.0002669,70.0001,305.7185,267.1433,92.942,-1.6869e-05,-2.94e-06,0.0,0 STARLINK-5642,1 55430U 23014AR  24005.93362200 -.00000294  00000-0 -16869-4 0  9994,2 55430  70.0001 305.7185 0002669 267.1433  92.9420 14.98325995 52171,6950.205,96.107,573.925,570.215,0.0
55430.0,STARLINK-5642,PAYLOAD,2024-01-06 06:25:05,14.98327259,0.0002664,70.0001,304.8769,266.7653,93.3201,-2.3129e-06,-1.21e-06,0.0,0 STARLINK-5642,1 55430U 23014AR  24006.26742135 -.00000121  00000-0 -23129-5 0  9997,2 55430  70.0001 304.8769 0002664 266.7653  93.3201 14.98327259 52226,6950.201,96.107,573.918,570.215,0.0
55430.0,STARLINK-5642,PAYLOAD,2024-01-06 22:26:25,14.98329178,0.0002664,70.0,303.1934,262.8209,97.2648,-3.2153e-05,-4.77e-06,0.0,0 STARLINK-5642,1 55430U 23014AR  24006.93502087 -.00000477  00000-0 -32153-4 0  9991,2 55430  70.0000 303.1934 0002664 262.8209  97.2648 14.98329178 52326,6950.195,96.107,573.912,570.209,0.0
55430.0,STARLINK-5642,PAYLOAD,2024-01-07 03:14:50,14.9832906,0.0002657,70.0001,302.6886,263.4926,96.593,-3.01e-05,-4.52e-06,0.0,0 STARLINK-5642,1 55430U 23014AR  24007.13530102 -.00000452  00000-0 -30100-4 0  9996,2 55430  70.0001 302.6886 0002657 263.4926  96.5930 14.98329060 51417,6950.196,96.107,573.907,570.214,0.0
55430.0,STARLINK-5642,PAYLOAD,2024-01-07 06:27:06,14.98329793,0.0002649,70.0001,302.352,263.1023,96.9834,-1.9935e-05,-3.31e-06,0.0,0 STARLINK-5642,1 55430U 23014AR  24007.26882034 -.00000331  00000-0 -19935-4 0  9993,2 55430  70.0001 302.3520 0002649 263.1023  96.9834 14.98329793 52371,6950.194,96.107,573.9,570.217,0.0
55430.0,STARLINK-5642,PAYLOAD,2024-01-07 22:28:26,14.9832909,0.0002764,69.9999,300.6688,262.9119,97.1726,5.1132e-05,5.17e-06,0.0,0 STARLINK-5642,1 55430U 23014AR  24007.93641803  .00000517  00000-0  51132-4 0  9993,2 55430  69.9999 300.6688 0002764 262.9119  97.1726 14.98329090 52475,6950.196,96.107,573.982,570.14,0.0
55430.0,STARLINK-5642,PAYLOAD,2024-01-08 03:16:50,14.98331257,0.0002731,69.9999,300.1639,261.2769,98.808,7.4694e-05,7.98e-06,0.0,0 STARLINK-5642,1 55430U 23014AR  24008.13669596  .00000798  00000-0  74694-4 0  9994,2 55430  69.9999 300.1639 0002731 261.2769  98.8080 14.98331257 51561,6950.189,96.107,573.952,570.156,0.0
55430.0,STARLINK-5642,PAYLOAD,2024-01-08 04:52:58,14.98332091,0.0002717,70.0,299.9957,260.449,99.6362,8.3816e-05,9.07e-06,0.0,0 STARLINK-5642,1 55430U 23014AR  24008.20345510  .00000907  00000-0  83816-4 0  9997,2 55430  70.0000 299.9957 0002717 260.4490  99.6362 14.98332091 52516,6950.186,96.107,573.94,570.163,0.0
55430.0,STARLINK-5642,PAYLOAD,2024-01-08 22:30:27,14.98327768,0.0002484,70.001,298.1461,241.7387,118.3522,1.7063e-05,1.11e-06,0.0,0 STARLINK-5642,1 55430U 23014AR  24008.93781933  .00000111  00000-0  17063-4 0  9998,2 55430  70.0010 298.1461 0002484 241.7387 118.3522 14.98327768 52620,6950.2,96.107,573.791,570.338,0.0
55430.0,STARLINK-5642,PAYLOAD,2024-01-09 03:18:51,14.9832674,0.0002543,70.0011,297.6419,247.577,112.512,1.6087e-05,9.9e-07,0.0,0 STARLINK-5642,1 55430U 23014AR  24009.13810074  .00000099  00000-0  16087-4 0  9990,2 55430  70.0011 297.6419 0002543 247.5770 112.5120 14.98326740 51712,6950.203,96.107,573.835,570.301,0.0
55430.0,STARLINK-5642,PAYLOAD,2024-01-09 04:54:59,14.9832653,0.000253,70.0011,297.4735,247.8669,112.2222,1.4573e-05,8.1e-07,0.0,0 STARLINK-5642,1 55430U 23014AR  24009.20486106  .00000081  00000-0  14573-4 0  9992,2 55430  70.0011 297.4735 0002530 247.8669 112.2222 14.98326530 52669,6950.204,96.107,573.827,570.31,0.0
55430.0,STARLINK-5642,PAYLOAD,2024-01-09 22:32:28,14.98330539,0.0002599,70.0005,295.6194,250.7996,109.2882,1.4264e-05,7.7e-07,0.0,0 STARLINK-5642,1 55430U 23014AR  24009.93921748  .00000077  00000-0  14264-4 0  9990,2 55430  70.0005 295.6194 0002599 250.7996 109.2882 14.98330539 52776,6950.191,96.107,573.863,570.25,0.0
55430.0,STARLINK-5642,PAYLOAD,2024-01-10 03:20:52,14.98337207,0.0002543,70.0003,295.1141,246.2134,113.8759,-5.0471e-05,-6.95e-06,0.0,0 STARLINK-5642,1 55430U 23014AR  24010.13949470 -.00000695  00000-0 -50471-4 0  9994,2 55430  70.0003 295.1141 0002543 246.2134 113.8759 14.98337207 51866,6950.171,96.107,573.803,570.268,0.0
55430.0,STARLINK-5642,PAYLOAD,2024-01-10 04:57:00,14.98333433,0.000264,70.0001,294.9456,254.9336,105.1531,4.4721e-05,4.41e-06,0.0,0 STARLINK-5642,1 55430U 23014AR  24010.20625464  .00000441  00000-0  44721-4 0  9994,2 55430  70.0001 294.9456 0002640 254.9336 105.1531 14.98333433 52813,6950.182,96.107,573.882,570.212,0.0
55430.0,STARLINK-5642,PAYLOAD,2024-01-10 19:22:13,14.9832853,0.0002523,70.0004,293.4305,258.1001,101.9876,2.9453e-05,2.58e-06,0.0,0 STARLINK-5642,1 55430U 23014AR  24010.80709812  .00000258  00000-0  29453-4 0  9991,2 55430  70.0004 293.4305 0002523 258.1001 101.9876 14.98328530 51961,6950.197,96.107,573.816,570.309,0.0
55430.0,STARLINK-5642,PAYLOAD,2024-01-11 04:59:01,14.98334313,0.0002613,70.0005,292.422,243.5355,116.5536,2.9456e-05,2.59e-06,0.0,0 STARLINK-5642,1 55430U 23014AR  24011.20765375  .00000259  00000-0  29456-4 0  9996,2 55430  70.0005 292.4220 0002613 243.5355 116.5536 14.98334313 52026,6950.18,96.107,573.861,570.228,0.0
55430.0,STARLINK-5642,PAYLOAD,2024-01-11 19:24:14,14.98328122,0.0002021,70.0016,290.9067,244.17,115.9251,1.3717e-05,7.1e-07,0.0,0 STARLINK-5642,1 55430U 23014AR  24011.80849883  .00000071  00000-0  13717-4 0  9994,2 55430  70.0016 290.9067 0002021 244.1700 115.9251 14.98328122 52112,6950.199,96.107,573.468,570.659,0.0
55430.0,STARLINK-5642,PAYLOAD,2024-01-11 21:00:22,14.98327334,0.000214,70.0014,290.7385,241.2721,118.8223,9.718e-07,-8.1e-07,0.0,0 STARLINK-5642,1 55430U 23014AR  24011.87525950 -.00000081  00000-0  97180-6 0  9997,2 55430  70.0014 290.7385 0002140 241.2721 118.8223 14.98327334 53064,6950.201,96.107,573.553,570.579,0.0
55430.0,STARLINK-5642,PAYLOAD,2024-01-12 05:01:02,14.9833077,0.0002163,70.0016,289.8968,239.3039,120.7907,3.8999e-05,3.72e-06,0.0,0 STARLINK-5642,1 55430U 23014AR  24012.20905639  .00000372  00000-0  38999-4 0  9994,2 55430  70.0016 289.8968 0002163 239.3039 120.7907 14.98330770 53112,6950.191,96.107,573.559,570.552,0.0
55430.0,STARLINK-5642,PAYLOAD,2024-01-12 19:26:15,14.98327294,0.0002389,70.0012,288.3818,230.9701,129.1246,3.4663e-05,3.21e-06,0.0,0 STARLINK-5642,1 55430U 23014AR  24012.80989754  .00000321  00000-0  34663-4 0  9998,2 55430  70.0012 288.3818 0002389 230.9701 129.1246 14.98327294 52260,6950.201,96.107,573.727,570.406,0.0
55430.0,STARLINK-5642,PAYLOAD,2024-01-12 22:38:31,14.98312613,0.0002385,70.0011,288.0449,237.176,122.917,0.00024637,2.847e-05,0.0,0 STARLINK-5642,1 55430U 23014AR  24012.94342064  .00002847  00000-0  24637-3 0  9994,2 55430  70.0011 288.0449 0002385 237.1760 122.9170 14.98312613 53229,6950.247,96.108,573.769,570.454,0.0
55430.0,STARLINK-5642,PAYLOAD,2024-01-13 03:26:56,14.98321829,0.0002405,70.0009,287.5399,226.5331,133.5628,-3.1124e-05,-4.64e-06,0.0,0 STARLINK-5642,1 55430U 23014AR  24013.14370388 -.00000464  00000-0 -31124-4 0  9992,2 55430  70.0009 287.5399 0002405 226.5331 133.5628 14.98321829 52317,6950.218,96.108,573.755,570.412,0.0
55430.0,STARLINK-5642,PAYLOAD,2024-01-14 03:28:56,14.98330645,0.0002577,70.0005,285.0148,244.534,115.5553,-8.8406e-06,-1.98e-06,0.0,0 STARLINK-5642,1 55430U 23014AR  24014.14509918 -.00000198  00000-0 -88406-5 0  9996,2 55430  70.0005 285.0148 0002577 244.5340 115.5553 14.98330645 52467,6950.191,96.107,573.847,570.265,0.0
55430.0,STARLINK-5642,PAYLOAD,2024-01-14 22:42:33,14.9833104,0.0002679,69.9999,282.9947,254.103,105.9834,8.3363e-05,9.02e-06,0.0,0 STARLINK-5642,1 55430U 23014AR  24014.94621570  .00000902  00000-0  83363-4 0  9990,2 55430  69.9999 282.9947 0002679 254.1030 105.9834 14.98331040 53528,6950.19,96.107,573.917,570.193,0.0
55430.0,STARLINK-5642,PAYLOAD,2024-01-15 03:30:56,14.98336088,0.0002559,69.9999,282.4908,259.4264,100.6606,0.00014131,1.594e-05,0.0,0 STARLINK-5642,1 55430U 23014AR  24015.14649171  .00001594  00000-0  14131-3 0  9994,2 55430  69.9999 282.4908 0002559 259.4264 100.6606 14.98336088 52619,6950.174,96.107,573.818,570.261,0.0
55430.0,STARLINK-5642,PAYLOAD,2024-01-15 17:56:09,14.98331772,0.0001807,70.0018,280.9758,257.5854,102.5103,5.5131e-05,5.65e-06,0.0,0 STARLINK-5642,1 55430U 23014AR  24015.74733647  .00000565  00000-0  55131-4 0  9995,2 55430  70.0018 280.9758 0001807 257.5854 102.5103 14.98331772 52707,6950.187,96.107,573.308,570.797,0.0
55430.0,STARLINK-5642,PAYLOAD,2024-01-15 21:08:26,14.98327991,0.0002733,70.0003,280.6398,263.3146,96.7702,-4.1408e-05,-5.87e-06,0.0,0 STARLINK-5642,1 55430U 23014AR  24015.88086044 -.00000587  00000-0 -41408-4 0  9990,2 55430  70.0003 280.6398 0002733 263.3146  96.7702 14.98327991 53669,6950.199,96.107,573.964,570.165,0.0
55430.0,STARLINK-5642,PAYLOAD,2024-01-16 00:20:42,14.9832839,0.0002846,69.9992,280.3008,264.4785,95.605,-5.089e-05,-7e-06,0.0,0 STARLINK-5642,1 55430U 23014AR  24016.01438025 -.00000700  00000-0 -50890-4 0  9998,2 55430  69.9992 280.3008 0002846 264.4785  95.6050 14.98328390 52740,6950.198,96.107,574.041,570.085,0.0
55430.0,STARLINK-5642,PAYLOAD,2024-01-16 01:56:50,14.98329311,0.0002831,69.9991,280.1324,261.6306,98.4532,-3.3394e-05,-4.91e-06,0.0,0 STARLINK-5642,1 55430U 23014AR  24016.08113902 -.00000491  00000-0 -33394-4 0  9996,2 55430  69.9991 280.1324 0002831 261.6306  98.4532 14.98329311 53695,6950.195,96.107,574.028,570.092,0.0
55430.0,STARLINK-5642,PAYLOAD,2024-01-16 21:10:27,14.98330799,0.0003297,69.999,278.1123,276.4373,83.641,-2.8047e-05,-4.28e-06,0.0,0 STARLINK-5642,1 55430U 23014AR  24016.88225797 -.00000428  00000-0 -28047-4 0  9999,2 55430  69.9990 278.1123 0003297 276.4373  83.6410 14.98330799 53810,6950.19,96.107,574.347,569.764,0.0
